INTELSAT 23 (IS-23)     
1 38867U 12057A   26201.84350374 -.00000285  00000+0  00000+0 0  9996
2 38867   0.0187  24.4340 0000474 102.8760  61.9590  1.00276145 50298
BEIDOU-2 G6             
1 38953U 12059A   26201.95346358 -.00000179  00000+0  00000+0 0  9995
2 38953   4.5051  73.1591 0008918 328.3986 324.4297  1.00273087 50246
LUCH-5B                 
1 38977U 12061A   26201.82898098 -.00000144  00000+0  00000+0 0  9995
2 38977  10.5548  49.5452 0003780 144.3715  26.8115  1.00270597 49941
YAMAL 300K              
1 38978U 12061B   26201.79708752  .00000070  00000+0  00000+0 0  9996
2 38978   0.0015 168.9574 0000069 247.3786 352.1277  1.00270092 49961
STAR ONE C3             
1 38991U 12062A   26201.88864447 -.00000249  00000+0  00000+0 0  9995
2 38991   0.0124  73.2433 0002386  52.1002  58.2399  1.00272268 50100
EUTELSAT 21B            
1 38992U 12062B   26201.83643435  .00000130  00000+0  00000+0 0  9991
2 38992   0.0673 346.4651 0003240 140.9871 133.8406  1.00273682 50163
ECHOSTAR 16             
1 39008U 12065A   26201.89133115 -.00000282  00000+0  00000+0 0  9997
2 39008   0.0171  53.4338 0002054  62.4409  82.1629  1.00271374 49986
ZHONGXING-12            
1 39017U 12067A   26201.98385057 -.00000206  00000+0  00000+0 0  9999
2 39017   0.0476  97.4349 0002770  18.2882 264.7007  1.00270745 49847
EUTELSAT 70B            
1 39020U 12069A   26201.91738697 -.00000044  00000+0  00000+0 0  9990
2 39020   0.0645 342.7397 0003557 139.1137 217.5895  1.00274352 49847
YAMAL 402               
1 39022U 12070A   26201.20129978  .00000083  00000+0  00000+0 0  9994
2 39022   1.3474  83.7507 0003777  28.3484 313.2334  1.00272347 49727
SKYNET 5D               
1 39034U 12075A   26201.91392028  .00000099  00000+0  00000+0 0  9995
2 39034   0.0689   9.7976 0003665 117.2169 193.4209  1.00273125 49494
MEXSAT 3                
1 39035U 12075B   26201.66690608 -.00000026  00000+0  00000+0 0  9994
2 39035   0.0174  69.0555 0001208  43.5343 311.1243  1.00271496  7380
TDRS 11                 
1 39070U 13004A   26201.86897105  .00000077  00000+0  00000+0 0  9994
2 39070   3.5699  31.7781 0005298  30.2167  15.2654  1.00265161 47032
AMAZONAS 3              
1 39078U 13006A   26201.74884038 -.00000283  00000+0  00000+0 0  9992
2 39078   0.0407 229.7075 0003538 282.0673 355.3179  1.00270786 45259
AZERSPACE 1             
1 39079U 13006B   26201.91253361  .00000134  00000+0  00000+0 0  9995
2 39079   0.0411 253.9437 0002046 258.4604 160.7635  1.00268075 49145
SBIRS GEO-2 (USA 241)   
1 39120U 13011A   26201.46590897 -.00000290  00000+0  00000+0 0  9990
2 39120   4.5586  52.5014 0001934  61.2889 302.3784  1.00271238 48871
EUTELSAT 117 WEST A     
1 39122U 13012A   26201.66647274 -.00000013  00000+0  00000+0 0  9990
2 39122   0.0375 279.8315 0002899 198.0383 303.6837  1.00271592 48761
ANIK G1                 
1 39127U 13014A   26201.88223111 -.00000074  00000+0  00000+0 0  9998
2 39127   0.0120 355.2825 0001936 130.1434  23.5215  1.00272316 48598
ZHONGXING-11            
1 39157U 13020A   26201.99077867 -.00000290  00000+0  00000+0 0  9995
2 39157   0.0421 273.7098 0002311 165.4819 314.1409  1.00273251 48231
EUTELSAT 7B             
1 39163U 13022A   26201.83357434  .00000048  00000+0  00000+0 0  9998
2 39163   0.0656 349.6872 0003218  61.1914 194.7914  1.00271519 48289
WGS F5 (USA 243)        
1 39168U 13024A   26201.84350374  .00000000  00000+0  00000+0 0  9990
2 39168   0.0212  61.6758 0000212  65.2550  62.8521  1.00269596 47514
SES-6                   
1 39172U 13026A   26201.83794926 -.00000261  00000+0  00000+0 0  9991
2 39172   0.0159  14.5719 0002737  85.3177  99.8844  1.00271728 48064
IRNSS-1A                
1 39199U 13034A   26191.72043649  .00000047  00000+0  00000+0 0  9995
2 39199  35.7704  63.5328 0017567 183.4462 356.2994  1.00281941 47601
MUOS-2                  
1 39206U 13036A   26201.86619771 -.00000016  00000+0  00000+0 0  9995
2 39206   5.0604  45.5542 0053163 176.4050 200.4805  1.00273348 47539
ALPHASAT                
1 39215U 13038A   26201.83712769  .00000132  00000+0  00000+0 0  9993
2 39215   2.9998   1.1349 0002577 138.8999 124.8099  1.00273550 44357
INSAT-3D                
1 39216U 13038B   26201.92908701 -.00000340  00000+0  00000+0 0  9999
2 39216   2.0112  82.1152 0001053  42.5460 278.0032  1.00273612 47418
WGS F6 (USA 244)        
1 39222U 13041A   26201.66283272  .00000088  00000+0  00000+0 0  9998
2 39222   0.0178  60.1350 0000377  37.2783 304.4415  1.00272582 46398
ES'HAIL 1               
1 39233U 13044A   26201.83712769  .00000143  00000+0  00000+0 0  9992
2 39233   0.0471   2.2156 0002382 108.4575 154.7795  1.00271337 46962
GSAT-7                  
1 39234U 13044B   26201.91808030 -.00000077  00000+0  00000+0 0  9996
2 39234   0.1654  89.4657 0003013 173.9999  79.6831  1.00272280 45591
AMOS-4                  
1 39237U 13045A   26201.91626029  .00000008  00000+0  00000+0 0  9999
2 39237   0.0049 231.0388 0001966 219.1557 243.3322  1.00271750 47290
AEHF-3 (USA 246)        
1 39256U 13050A   26201.73627366  .00000025  00000+0  00000+0 0  9990
2 39256   5.3737  66.8724 0088688 187.7164 184.6989  1.00272440 45999
ASTRA 2E                
1 39285U 13056A   26201.86294771  .00000150  00000+0  00000+0 0  9991
2 39285   0.0678 322.4393 0002565 153.8351 161.4699  1.00271717 46754
