OBJECT_NAME,OBJECT_ID,EPOCH,MEAN_MOTION,ECCENTRICITY,INCLINATION,RA_OF_ASC_NODE,ARG_OF_PERICENTER,MEAN_ANOMALY,EPHEMERIS_TYPE,CLASSIFICATION_TYPE,NORAD_CAT_ID,ELEMENT_SET_NO,REV_AT_EPOCH,BSTAR,MEAN_MOTION_DOT,MEAN_MOTION_DDOT
INTELSAT 23 (IS-23),2012-057A,2026-07-20T20:14:38.723136,1.00276145,.00004741,0.0187,24.4340,102.8760,61.9590,0,U,38867,999,5029,0,-.285E-5,0
BEIDOU-2 G6,2012-059A,2026-07-20T22:52:59.253312,1.00273087,.00089184,4.5051,73.1591,328.3986,324.4297,0,U,38953,999,5024,0,-.179E-5,0
LUCH-5B,2012-061A,2026-07-20T19:53:43.956672,1.00270597,.00037803,10.5548,49.5452,144.3715,26.8115,0,U,38977,999,4994,0,-.144E-5,0
YAMAL 300K,2012-061B,2026-07-20T19:07:48.361728,1.00270092,.00000693,0.0015,168.9574,247.3786,352.1277,0,U,38978,999,4996,0,.7E-6,0
STAR ONE C3,2012-062A,2026-07-20T21:19:38.882208,1.00272268,.00023862,0.0124,73.2433,52.1002,58.2399,0,U,38991,999,5010,0,-.249E-5,0
EUTELSAT 21B,2012-062B,2026-07-20T20:04:27.927840,1.00273682,.00032409,0.0673,346.4651,140.9871,133.8406,0,U,38992,999,5016,0,.13E-5,0
ECHOSTAR 16,2012-065A,2026-07-20T21:23:31.011360,1.00271374,.00020541,0.0171,53.4338,62.4409,82.1629,0,U,39008,999,4998,0,-.282E-5,0
ZHONGXING-12,2012-067A,2026-07-20T23:36:44.689248,1.00270745,.00027707,0.0476,97.4349,18.2882,264.7007,0,U,39017,999,4984,0,-.206E-5,0
EUTELSAT 70B,2012-069A,2026-07-20T22:01:02.234208,1.00274352,.00035579,0.0645,342.7397,139.1137,217.5895,0,U,39020,999,4984,0,-.44E-6,0
YAMAL 402,2012-070A,2026-07-20T04:49:52.300992,1.00272347,.00037775,1.3474,83.7507,28.3484,313.2334,0,U,39022,999,4972,0,.83E-6,0
SKYNET 5D,2012-075A,2026-07-20T21:56:02.712192,1.00273125,.00036656,0.0689,9.7976,117.2169,193.4209,0,U,39034,999,4949,0,.99E-6,0
MEXSAT 3,2012-075B,2026-07-20T16:00:20.685312,1.00271496,.00012089,0.0174,69.0555,43.5343,311.1243,0,U,39035,999,738,0,-.26E-6,0
TDRS 11,2013-004A,2026-07-20T20:51:19.098720,1.00265161,.0005298,3.5699,31.7781,30.2167,15.2654,0,U,39070,999,4703,0,.77E-6,0
AMAZONAS 3,2013-006A,2026-07-20T17:58:19.808832,1.00270786,.00035389,0.0407,229.7075,282.0673,355.3179,0,U,39078,999,4525,0,-.283E-5,0
AZERSPACE 1,2013-006B,2026-07-20T21:54:02.903904,1.00268075,.00020466,0.0411,253.9437,258.4604,160.7635,0,U,39079,999,4914,0,.134E-5,0
SBIRS GEO-2 (USA 241),2013-011A,2026-07-20T11:10:54.535008,1.00271238,.00019348,4.5586,52.5014,61.2889,302.3784,0,U,39120,999,4887,0,-.29E-5,0
EUTELSAT 117 WEST A,2013-012A,2026-07-20T15:59:43.244736,1.00271592,.00028996,0.0375,279.8315,198.0383,303.6837,0,U,39122,999,4876,0,-.13E-6,0
ANIK G1,2013-014A,2026-07-20T21:10:24.767904,1.00272316,.00019368,0.0120,355.2825,130.1434,23.5215,0,U,39127,999,4859,0,-.74E-6,0
ZHONGXING-11,2013-020A,2026-07-20T23:46:43.277088,1.00273251,.00023113,0.0421,273.7098,165.4819,314.1409,0,U,39157,999,4823,0,-.29E-5,0
EUTELSAT 7B,2013-022A,2026-07-20T20:00:20.822976,1.00271519,.00032187,0.0656,349.6872,61.1914,194.7914,0,U,39163,999,4828,0,.48E-6,0
WGS F5 (USA 243),2013-024A,2026-07-20T20:14:38.723136,1.00269596,.0000212,0.0212,61.6758,65.2550,62.8521,0,U,39168,999,4751,0,0,0
SES-6,2013-026A,2026-07-20T20:06:38.816064,1.00271728,.00027374,0.0159,14.5719,85.3177,99.8844,0,U,39172,999,4806,0,-.261E-5,0
IRNSS-1A,2013-034A,2026-07-10T17:17:25.712736,1.00281941,.0017567,35.7704,63.5328,183.4462,356.2994,0,U,39199,999,4760,0,.47E-6,0
MUOS-2,2013-036A,2026-07-20T20:47:19.482144,1.00273348,.00531639,5.0604,45.5542,176.4050,200.4805,0,U,39206,999,4753,0,-.16E-6,0
ALPHASAT,2013-038A,2026-07-20T20:05:27.832416,1.00273550,.00025772,2.9998,1.1349,138.8999,124.8099,0,U,39215,999,4435,0,.132E-5,0
INSAT-3D,2013-038B,2026-07-20T22:17:53.117664,1.00273612,.00010534,2.0112,82.1152,42.5460,278.0032,0,U,39216,999,4741,0,-.34E-5,0
WGS F6 (USA 244),2013-041A,2026-07-20T15:54:28.747008,1.00272582,.00003775,0.0178,60.1350,37.2783,304.4415,0,U,39222,999,4639,0,.88E-6,0
ES'HAIL 1,2013-044A,2026-07-20T20:05:27.832416,1.00271337,.00023828,0.0471,2.2156,108.4575,154.7795,0,U,39233,999,4696,0,.143E-5,0
GSAT-7,2013-044B,2026-07-20T22:02:02.137920,1.00272280,.00030135,0.1654,89.4657,173.9999,79.6831,0,U,39234,999,4559,0,-.77E-6,0
AMOS-4,2013-045A,2026-07-20T21:59:24.889056,1.00271750,.00019669,0.0049,231.0388,219.1557,243.3322,0,U,39237,999,4729,0,.8E-7,0
AEHF-3 (USA 246),2013-050A,2026-07-20T17:40:14.044224,1.00272440,.00886881,5.3737,66.8724,187.7164,184.6989,0,U,39256,999,4599,0,.25E-6,0
ASTRA 2E,2013-056A,2026-07-20T20:42:38.682144,1.00271717,.0002565,0.0678,322.4393,153.8351,161.4699,0,U,39285,999,4675,0,.15E-5,0
